METHANESAT              
1 59101U 24043D   25338.28475068  .00007953  00000+0  70065-3 0  9994
2 59101  97.8200 103.8780 0009720 303.8247  56.2048 14.96699197 95488
GOSAT-GW (IBUKI GW)     
1 64694U 25141A   25334.23717902  .00001074  00000+0  19762-3 0  9999
2 64694  98.0401 269.9775 0001436  82.9210 277.2158 14.67567435 22660
GHGSAT-C1               
1 46278U 20061G   25338.29879575  .00046068  00000+0  60563-3 0  9995
2 46278  97.2337  53.7895 0002641  63.7142 296.4385 15.58360050293007
GHGSAT-C12              
1 64529U 25135B   25338.25873658  .00009453  00000+0  46036-3 0  9999
2 64529  97.4616  90.2512 0006314 125.0819 235.1008 15.18558199 25222
GHGSAT-C13              
1 64548U 25135W   25338.28920806  .00007704  00000+0  36756-3 0  9996
2 64548  97.4641  90.5651 0002693  83.1425 277.0116 15.19350533 25241
GHGSAT-C2               
1 47509U 21006DA  25338.09600047  .00013083  00000+0  38806-3 0  9993
2 47509  97.2458  23.7187 0006480 136.8846 223.2907 15.34927533269895
GHGSAT-C3               
1 52737U 22057F   25338.31763630  .00015904  00000+0  52996-3 0  9992
2 52737  97.6335 112.4764 0007670  93.4423 266.7695 15.31165917195688
GHGSAT-C4               
1 52746U 22057Q   25338.33662917  .00015483  00000+0  51616-3 0  9990
2 52746  97.6263 111.5233 0007846  81.0021 279.2107 15.31157760195696
GHGSAT-C5               
1 52744U 22057N   25338.35381035  .00015037  00000+0  50147-3 0  9992
2 52744  97.6422 113.8605 0008639  89.8589 270.3641 15.31146592195691
GHGSAT-C6               
1 56204U 23054AC  25338.27229039  .00029878  00000+0  60075-3 0  9990
2 56204  97.3180 240.4194 0009865  44.4342 315.7697 15.46530452148264
GHGSAT-C7               
1 56209U 23054AH  25338.31462439  .00022074  00000+0  46852-3 0  9991
2 56209  97.3139 239.7161 0009786  36.8963 323.2957 15.45004187148256
GHGSAT-C8               
1 56186U 23054J   25338.31005398  .00028385  00000+0  57072-3 0  9999
2 56186  97.3148 239.8882 0007959  63.2566 296.9498 15.46559979148255
SENTINEL-5P             
1 42969U 17064A   25338.30848810  .00000179  00000+0  10613-3 0  9991
2 42969  98.7770 276.9679 0000945  85.9815 274.1469 14.19514176421919
ENMAP                   
1 52159U 22033C   25338.33141519  .00001183  00000+0  18362-3 0  9995
2 52159  97.9778  58.3672 0001371  87.7659 272.3707 14.74929649197938
PRISMA                  
1 44072U 19015A   25338.30147624  .00001970  00000+0  24503-3 0  9994
2 44072  97.8710  50.8816 0001142  93.5889 266.5456 14.83664716363157
SENTINEL-2A             
1 40697U 15028A   25338.31958874  .00000350  00000+0  15027-3 0  9993
2 40697  98.5702  50.9722 0001033  93.7384 266.3917 14.30822376545863
SENTINEL-2B             
1 42063U 17013A   25338.31235573  .00000354  00000+0  15179-3 0  9994
2 42063  98.5726  50.8764 0001118  98.1992 261.9318 14.30811045456779
SENTINEL-2C             
1 60989U 24157A   25338.20759654  .00000344  00000+0  14769-3 0  9990
2 60989  98.5612  50.8132 0001124 101.6158 258.5151 14.30825138 65108
LANDSAT 8               
1 39084U 13008A   25338.21000471  .00001294  00000+0  29716-3 0  9995
2 39084  98.2083  46.4091 0001164  85.2683 274.8649 14.57102266669504
LANDSAT 9               
1 49260U 21088A   25338.17575818  .00000909  00000+0  21181-3 0  9996
2 49260  98.2104  46.4104 0001061  92.6691 267.4629 14.57116853222606
